NOAA 3                  
1 06920U 73086A   24326.89594081 -.00000034  00000+0  93292-4 0  9998
2 06920 102.2864 324.3076 0006579  95.3344  30.5565 12.40374848310944
